{
  "type": "FeatureCollection",
  "features": [
    {
      "type": "Feature",
      "properties": {
        "norad_id": 30892,
        "name": "FENGYUN 1C DEB",
        "group": "fengyun-1c-debris",
        "lat": -70.37955686888108,
        "lon": 77.27910545950566,
        "alt_km": 819.7718437451149,
        "timestamp": "2025-12-08T23:34:04.248863+00:00",
        "meta_object_name": "FENGYUN 1C DEB",
        "meta_object_id": "1999-025AYE",
        "meta_epoch": "2025-12-02T15:45:32.268672",
        "meta_mean_motion": 14.18893658,
        "meta_eccentricity": 0.00376287,
        "meta_inclination": 99.6617,
        "meta_ra_of_asc_node": 278.9389,
        "meta_arg_of_pericenter": 217.7485,
        "meta_mean_anomaly": 142.1047,
        "meta_ephemeris_type": 0,
        "meta_classification_type": "U",
        "meta_norad_cat_id": 30892,
        "meta_element_set_no": 999,
        "meta_rev_at_epoch": 64160,
        "meta_bstar": 0.00053864396,
        "meta_mean_motion_dot": 1.078e-05,
        "meta_mean_motion_ddot": 0,
        "tle_line1": "1 30892U 99025AYE 25336.65662348  .00001078  00000+0  53864-3 0  9990",
        "tle_line2": "2 30892  99.6617 278.9389 0037628 217.7485 142.1047 14.18893658641607"
      },
      "geometry": {
        "type": "Point",
        "coordinates": [
          77.27910545950566,
          -70.37955686888108
        ]
      }
    },
    {
      "type": "Feature",
      "properties": {
        "norad_id": 30893,
        "name": "FENGYUN 1C DEB",
        "group": "fengyun-1c-debris",
        "lat": -52.23651522691616,
        "lon": 21.350029751734528,
        "alt_km": 1127.0497886592411,
        "timestamp": "2025-12-08T23:34:04.248874+00:00",
        "meta_object_name": "FENGYUN 1C DEB",
        "meta_object_id": "1999-025AYF",
        "meta_epoch": "2025-12-06T08:24:45.258048",
        "meta_mean_motion": 13.94039277,
        "meta_eccentricity": 0.03095885,
        "meta_inclination": 98.258,
        "meta_ra_of_asc_node": 8.1876,
        "meta_arg_of_pericenter": 110.75,
        "meta_mean_anomaly": 318.9405,
        "meta_ephemeris_type": 0,
        "meta_classification_type": "U",
        "meta_norad_cat_id": 30893,
        "meta_element_set_no": 999,
        "meta_rev_at_epoch": 94796,
        "meta_bstar": 0.00098360292,
        "meta_mean_motion_dot": 1.902e-05,
        "meta_mean_motion_ddot": 0,
        "tle_line1": "1 30893U 99025AYF 25340.35052382  .00001902  00000+0  98360-3 0  9990",
        "tle_line2": "2 30893  98.2580   8.1876 0309588 110.7500 318.9405 13.94039277947964"
      },
      "geometry": {
        "type": "Point",
        "coordinates": [
          21.350029751734528,
          -52.23651522691616
        ]
      }
    },
    {
      "type": "Feature",
      "properties": {
        "norad_id": 30895,
        "name": "FENGYUN 1C DEB",
        "group": "fengyun-1c-debris",
        "lat": 51.78189161013152,
        "lon": 40.214488921930084,
        "alt_km": 757.7385640758976,
        "timestamp": "2025-12-08T23:34:04.248884+00:00",
        "meta_object_name": "FENGYUN 1C DEB",
        "meta_object_id": "1999-025AYH",
        "meta_epoch": "2025-12-08T03:18:48.079008",
        "meta_mean_motion": 14.31528966,
        "meta_eccentricity": 0.02180258,
        "meta_inclination": 98.72,
        "meta_ra_of_asc_node": 50.6058,
        "meta_arg_of_pericenter": 137.5734,
        "meta_mean_anomaly": 250.8449,
        "meta_ephemeris_type": 0,
        "meta_classification_type": "U",
        "meta_norad_cat_id": 30895,
        "meta_element_set_no": 999,
        "meta_rev_at_epoch": 97727,
        "meta_bstar": 0.00063185767,
        "meta_mean_motion_dot": 2.133e-05,
        "meta_mean_motion_ddot": 0,
        "tle_line1": "1 30895U 99025AYH 25342.13805647  .00002133  00000+0  63186-3 0  9995",
        "tle_line2": "2 30895  98.7200  50.6058 0218025 137.5734 250.8449 14.31528966977274"
      },
      "geometry": {
        "type": "Point",
        "coordinates": [
          40.214488921930084,
          51.78189161013152
        ]
      }
    },
    {
      "type": "Feature",
      "properties": {
        "norad_id": 30898,
        "name": "FENGYUN 1C DEB",
        "group": "fengyun-1c-debris",
        "lat": 68.74311652830698,
        "lon": -130.42603573956305,
        "alt_km": 478.2191871223613,
        "timestamp": "2025-12-08T23:34:04.248894+00:00",
        "meta_object_name": "FENGYUN 1C DEB",
        "meta_object_id": "1999-025AYL",
        "meta_epoch": "2025-12-05T11:34:54.125760",
        "meta_mean_motion": 15.20738594,
        "meta_eccentricity": 0.00403265,
        "meta_inclination": 99.0264,
        "meta_ra_of_asc_node": 249.5052,
        "meta_arg_of_pericenter": 135.2764,
        "meta_mean_anomaly": 225.173,
        "meta_ephemeris_type": 0,
        "meta_classification_type": "U",
        "meta_norad_cat_id": 30898,
        "meta_element_set_no": 999,
        "meta_rev_at_epoch": 66261,
        "meta_bstar": 0.0042104008,
        "meta_mean_motion_dot": 0.00095752,
        "meta_mean_motion_ddot": 0,
        "tle_line1": "1 30898U 99025AYL 25339.48257090  .00095752  00000+0  42104-2 0  9990",
        "tle_line2": "2 30898  99.0264 249.5052 0040326 135.2764 225.1730 15.20738594662615"
      },
      "geometry": {
        "type": "Point",
        "coordinates": [
          -130.42603573956305,
          68.74311652830698
        ]
      }
    },
    {
      "type": "Feature",
      "properties": {
        "norad_id": 30903,
        "name": "FENGYUN 1C DEB",
        "group": "fengyun-1c-debris",
        "lat": -12.621436788095105,
        "lon": -129.36389337338147,
        "alt_km": 936.731883598517,
        "timestamp": "2025-12-08T23:34:04.248905+00:00",
        "meta_object_name": "FENGYUN 1C DEB",
        "meta_object_id": "1999-025AYR",
        "meta_epoch": "2025-12-07T09:49:46.651872",
        "meta_mean_motion": 13.9759553,
        "meta_eccentricity": 0.00968558,
        "meta_inclination": 99.3712,
        "meta_ra_of_asc_node": 226.9134,
        "meta_arg_of_pericenter": 107.4967,
        "meta_mean_anomaly": 253.6808,
        "meta_ephemeris_type": 0,
        "meta_classification_type": "U",
        "meta_norad_cat_id": 30903,
        "meta_element_set_no": 999,
        "meta_rev_at_epoch": 68630,
        "meta_bstar": 0.0004593066,
        "meta_mean_motion_dot": 6.28e-06,
        "meta_mean_motion_ddot": 0,
        "tle_line1": "1 30903U 99025AYR 25341.40956773  .00000628  00000+0  45931-3 0  9996",
        "tle_line2": "2 30903  99.3712 226.9134 0096855 107.4967 253.6808 13.97595530686304"
      },
      "geometry": {
        "type": "Point",
        "coordinates": [
          -129.36389337338147,
          -12.621436788095105
        ]
      }
    },
    {
      "type": "Feature",
      "properties": {
        "norad_id": 30905,
        "name": "FENGYUN 1C DEB",
        "group": "fengyun-1c-debris",
        "lat": 65.9480779792452,
        "lon": 37.84875868265851,
        "alt_km": 788.674591171055,
        "timestamp": "2025-12-08T23:34:04.248915+00:00",
        "meta_object_name": "FENGYUN 1C DEB",
        "meta_object_id": "1999-025AYT",
        "meta_epoch": "2025-12-08T11:23:46.781664",
        "meta_mean_motion": 14.17812388,
        "meta_eccentricity": 0.00569304,
        "meta_inclination": 98.8894,
        "meta_ra_of_asc_node": 57.8691,
        "meta_arg_of_pericenter": 92.8576,
        "meta_mean_anomaly": 267.9116,
        "meta_ephemeris_type": 0,
        "meta_classification_type": "U",
        "meta_norad_cat_id": 30905,
        "meta_element_set_no": 999,
        "meta_rev_at_epoch": 96062,
        "meta_bstar": 0.0021694642,
        "meta_mean_motion_dot": 4.456e-05,
        "meta_mean_motion_ddot": 0,
        "tle_line1": "1 30905U 99025AYT 25342.47484701  .00004456  00000+0  21695-2 0  9996",
        "tle_line2": "2 30905  98.8894  57.8691 0056930  92.8576 267.9116 14.17812388960629"
      },
      "geometry": {
        "type": "Point",
        "coordinates": [
          37.84875868265851,
          65.9480779792452
        ]
      }
    },
    {
      "type": "Feature",
      "properties": {
        "norad_id": 30912,
        "name": "FENGYUN 1C DEB",
        "group": "fengyun-1c-debris",
        "lat": 77.67369023442949,
        "lon": 50.21896935658924,
        "alt_km": 552.5905209935045,
        "timestamp": "2025-12-08T23:34:04.248925+00:00",
        "meta_object_name": "FENGYUN 1C DEB",
        "meta_object_id": "1999-025AZA",
        "meta_epoch": "2025-12-08T11:50:30.487488",
        "meta_mean_motion": 14.89199277,
        "meta_eccentricity": 0.00591518,
        "meta_inclination": 98.9961,
        "meta_ra_of_asc_node": 183.1962,
        "meta_arg_of_pericenter": 111.3973,
        "meta_mean_anomaly": 249.3566,
        "meta_ephemeris_type": 0,
        "meta_classification_type": "U",
        "meta_norad_cat_id": 30912,
        "meta_element_set_no": 999,
        "meta_rev_at_epoch": 99341,
        "meta_bstar": 0.0018132643,
        "meta_mean_motion_dot": 0.00017679,
        "meta_mean_motion_ddot": 0,
        "tle_line1": "1 30912U 99025AZA 25342.49340842  .00017679  00000+0  18133-2 0  9997",
        "tle_line2": "2 30912  98.9961 183.1962 0059151 111.3973 249.3566 14.89199277993413"
      },
      "geometry": {
        "type": "Point",
        "coordinates": [
          50.21896935658924,
          77.67369023442949
        ]
      }
    }
  ]
}